[{"OBJECT_NAME":"OBJECT A","OBJECT_ID":"2023-189A","EPOCH":"2026-03-09T22:59:06.381600","MEAN_MOTION":15.32403275,"ECCENTRICITY":0.00094831,"INCLINATION":97.4458,"RA_OF_ASC_NODE":86.5997,"ARG_OF_PERICENTER":249.5377,"MEAN_ANOMALY":110.4847,"EPHEMERIS_TYPE":0,"CLASSIFICATION_TYPE":"U","NORAD_CAT_ID":58502,"ELEMENT_SET_NO":999,"REV_AT_EPOCH":12601,"BSTAR":0.00019874471,"MEAN_MOTION_DOT":6.146e-5,"MEAN_MOTION_DDOT":0},{"OBJECT_NAME":"STARLINK-32779","OBJECT_ID":"2025-034B","EPOCH":"2026-03-09T17:04:26.543712","MEAN_MOTION":15.30191894,"ECCENTRICITY":0.0001004,"INCLINATION":53.1574,"RA_OF_ASC_NODE":271.2683,"ARG_OF_PERICENTER":65.7568,"MEAN_ANOMALY":294.3537,"EPHEMERIS_TYPE":0,"CLASSIFICATION_TYPE":"U","NORAD_CAT_ID":63030,"ELEMENT_SET_NO":999,"REV_AT_EPOCH":5890,"BSTAR":0.0013815043,"MEAN_MOTION_DOT":0.00040771,"MEAN_MOTION_DDOT":0}]
